[{"OBJECT_NAME":"STARLINK-33807","OBJECT_ID":"2025-071AB","EPOCH":"2026-03-09T12:36:45.050688","MEAN_MOTION":15.30194582,"ECCENTRICITY":0.00010995,"INCLINATION":53.1599,"RA_OF_ASC_NODE":142.8576,"ARG_OF_PERICENTER":99.0724,"MEAN_ANOMALY":261.0401,"EPHEMERIS_TYPE":0,"CLASSIFICATION_TYPE":"U","NORAD_CAT_ID":63518,"ELEMENT_SET_NO":999,"REV_AT_EPOCH":5271,"BSTAR":0.00084338498,"MEAN_MOTION_DOT":0.00024698,"MEAN_MOTION_DDOT":0},{"OBJECT_NAME":"BREEZE-M DEB","OBJECT_ID":"2006-006AR","EPOCH":"2026-03-08T23:28:03.758592","MEAN_MOTION":5.59966768,"ECCENTRICITY":0.49089825,"INCLINATION":51.6823,"RA_OF_ASC_NODE":0.3194,"ARG_OF_PERICENTER":145.1209,"MEAN_ANOMALY":260.102,"EPHEMERIS_TYPE":0,"CLASSIFICATION_TYPE":"U","NORAD_CAT_ID":34226,"ELEMENT_SET_NO":999,"REV_AT_EPOCH":25656,"BSTAR":0.002751158,"MEAN_MOTION_DOT":2.999e-5,"MEAN_MOTION_DDOT":0}]
